NORAD_CAT_ID,OBJECT_NAME,OBJECT_TYPE,EPOCH,MEAN_MOTION,ECCENTRICITY,INCLINATION,RA_OF_ASC_NODE,ARG_OF_PERICENTER,MEAN_ANOMALY,BSTAR,MEAN_MOTION_DOT,MEAN_MOTION_DDOT,TLE_LINE0,TLE_LINE1,TLE_LINE2,SEMIMAJOR_AXIS,PERIOD,APOGEE,PERIGEE,DECAYED
51855.0,STARLINK-3545,PAYLOAD,2023-12-06 13:01:40,15.08838835,0.0001323,53.218,118.782,92.4348,267.6795,2.6995e-05,1.42e-06,0.0,0 STARLINK-3545,1 51855U 22022D   23340.54282709  .00000142  00000-0  26995-4 0  9993,2 51855  53.2180 118.7820 0001323  92.4348 267.6795 15.08838835 98559,6917.884,95.438,540.664,538.834,0.0
51855.0,STARLINK-3545,PAYLOAD,2023-12-07 12:52:27,15.0883811,0.0001283,53.2208,114.3296,66.2143,293.8984,1.6341e-05,-2.8e-07,0.0,0 STARLINK-3545,1 51855U 22022D   23341.53643093 -.00000028  00000-0  16341-4 0  9998,2 51855  53.2208 114.3296 0001283  66.2143 293.8984 15.08838110 98700,6917.886,95.438,540.639,538.864,0.0
51855.0,STARLINK-3545,PAYLOAD,2023-12-08 12:43:14,15.08837847,0.0001298,53.2181,109.8627,91.3065,268.8076,1.6316e-05,-2.8e-07,0.0,0 STARLINK-3545,1 51855U 22022D   23342.53003023 -.00000028  00000-0  16316-4 0  9994,2 51855  53.2181 109.8627 0001298  91.3065 268.8076 15.08837847 98851,6917.887,95.438,540.65,538.854,0.0
51855.0,STARLINK-3545,PAYLOAD,2023-12-08 19:04:47,15.08836726,0.0001232,53.2177,108.6693,79.987,280.1261,5.4121e-05,5.74e-06,0.0,0 STARLINK-3545,1 51855U 22022D   23342.79499020  .00000574  00000-0  54121-4 0  9999,2 51855  53.2177 108.6693 0001232  79.9870 280.1261 15.08836726 98892,6917.89,95.438,540.608,538.903,0.0
51855.0,STARLINK-3545,PAYLOAD,2023-12-09 12:34:01,15.08837275,0.0001628,53.2176,105.3999,117.5126,242.6031,1.9147e-05,1.7e-07,0.0,0 STARLINK-3545,1 51855U 22022D   23343.52363131  .00000017  00000-0  19147-4 0  9995,2 51855  53.2176 105.3999 0001628 117.5126 242.6031 15.08837275 99008,6917.889,95.438,540.88,538.627,0.0
51855.0,STARLINK-3545,PAYLOAD,2023-12-10 12:24:48,15.08839125,0.0001732,53.2178,100.9391,122.4413,237.6747,6.8644e-05,8.05e-06,0.0,0 STARLINK-3545,1 51855U 22022D   23344.51722903  .00000805  00000-0  68644-4 0  9992,2 51855  53.2178 100.9391 0001732 122.4413 237.6747 15.08839125 99157,6917.883,95.438,540.946,538.55,0.0
51855.0,STARLINK-3545,PAYLOAD,2023-12-10 14:00:11,15.08839655,0.0001701,53.2184,100.6421,120.5562,239.5599,6.7623e-05,7.88e-06,0.0,0 STARLINK-3545,1 51855U 22022D   23344.58346903  .00000788  00000-0  67623-4 0  9997,2 51855  53.2184 100.6421 0001701 120.5562 239.5599 15.08839655 99160,6917.881,95.438,540.923,538.57,0.0
51855.0,STARLINK-3545,PAYLOAD,2023-12-10 15:35:35,15.08789012,0.0001698,53.2184,100.3469,79.4951,280.6232,0.0007891,0.00012275,0.0,0 STARLINK-3545,1 51855U 22022D   23344.64971858  .00012275  00000-0  78910-3 0  9991,2 51855  53.2184 100.3469 0001698  79.4951 280.6232 15.08789012 99171,6918.036,95.441,541.076,538.727,0.0
51855.0,STARLINK-3545,PAYLOAD,2023-12-11 13:50:59,15.08840454,0.000159,53.2185,96.1825,67.7879,292.3282,3.4354e-05,2.59e-06,0.0,0 STARLINK-3545,1 51855U 22022D   23345.57707328  .00000259  00000-0  34354-4 0  9997,2 51855  53.2185  96.1825 0001590  67.7879 292.3282 15.08840454 99319,6917.879,95.438,540.844,538.644,0.0
51855.0,STARLINK-3545,PAYLOAD,2023-12-12 13:41:46,15.08841991,0.0001603,53.2185,91.7243,68.2926,291.8236,3.4965e-05,2.69e-06,0.0,0 STARLINK-3545,1 51855U 22022D   23346.57067166  .00000269  00000-0  34965-4 0  9996,2 51855  53.2185  91.7243 0001603  68.2926 291.8236 15.08841991 99464,6917.874,95.437,540.848,538.63,0.0
51855.0,STARLINK-3545,PAYLOAD,2023-12-13 11:57:09,15.08842521,0.0001348,53.2182,87.5627,85.737,274.3777,4.6282e-05,4.49e-06,0.0,0 STARLINK-3545,1 51855U 22022D   23347.49802821  .00000449  00000-0  46282-4 0  9998,2 51855  53.2182  87.5627 0001348  85.7370 274.3777 15.08842521 99605,6917.873,95.437,540.67,538.805,0.0
51855.0,STARLINK-3545,PAYLOAD,2023-12-13 13:32:32,15.08843796,0.0001392,53.2185,87.2637,86.598,273.5171,5.6523e-05,6.12e-06,0.0,0 STARLINK-3545,1 51855U 22022D   23347.56426684  .00000612  00000-0  56523-4 0  9996,2 51855  53.2185  87.2637 0001392  86.5980 273.5171 15.08843796 99616,6917.869,95.437,540.697,538.771,0.0
51855.0,STARLINK-3545,PAYLOAD,2023-12-14 13:23:19,15.08840183,0.0001475,53.2189,82.8026,97.4412,262.6748,7.7126e-06,-1.65e-06,0.0,0 STARLINK-3545,1 51855U 22022D   23348.55787001 -.00000165  00000-0  77126-5 0  9996,2 51855  53.2189  82.8026 0001475  97.4412 262.6748 15.08840183 99768,6917.88,95.438,540.765,538.724,0.0
51855.0,STARLINK-3545,PAYLOAD,2023-12-15 11:38:44,15.08831359,0.0001437,53.2184,78.6361,88.1795,271.9362,-7.1895e-06,-4.02e-06,0.0,0 STARLINK-3545,1 51855U 22022D   23349.48523823 -.00000402  00000-0 -71895-5 0  9991,2 51855  53.2184  78.6361 0001437  88.1795 271.9362 15.08831359 99903,6917.907,95.438,540.766,538.778,0.0
51855.0,STARLINK-3545,PAYLOAD,2023-12-15 13:14:07,15.08833487,0.0001489,53.2184,78.3384,88.409,271.7073,-1.7633e-05,-5.69e-06,0.0,0 STARLINK-3545,1 51855U 22022D   23349.55147765 -.00000569  00000-0 -17633-4 0  9999,2 51855  53.2184  78.3384 0001489  88.4090 271.7073 15.08833487 99915,6917.9,95.438,540.795,538.735,0.0
51855.0,STARLINK-3545,PAYLOAD,2023-12-16 13:04:54,15.08806945,0.0001685,53.2187,73.8772,94.5101,265.6084,0.0005258,8.082e-05,0.0,0 STARLINK-3545,1 51855U 22022D   23350.54507893  .00008082  00000-0  52580-3 0  9997,2 51855  53.2187  73.8772 0001685  94.5101 265.6084 15.08806945100060,6917.981,95.44,541.012,538.681,0.0
51855.0,STARLINK-3545,PAYLOAD,2023-12-17 11:20:19,15.08834042,0.0001684,53.2188,69.7155,88.433,271.6855,5.1876e-05,5.38e-06,0.0,0 STARLINK-3545,1 51855U 22022D   23351.47244279  .00000538  00000-0  51876-4 0  9992,2 51855  53.2188  69.7155 0001684  88.4330 271.6855 15.08834042100203,6917.899,95.438,540.929,538.599,0.0
51855.0,STARLINK-3545,PAYLOAD,2023-12-17 12:55:41,15.08838002,0.0001694,53.2193,69.4167,79.5936,280.5247,7.9965e-05,9.85e-06,0.0,0 STARLINK-3545,1 51855U 22022D   23351.53868007  .00000985  00000-0  79965-4 0  9995,2 51855  53.2193  69.4167 0001694  79.5936 280.5247 15.08838002100218,6917.886,95.438,540.923,538.58,0.0
51855.0,STARLINK-3545,PAYLOAD,2023-12-18 11:11:04,15.08856191,0.0001756,53.2202,65.254,81.4968,278.6223,4.2284e-05,3.85e-06,0.0,0 STARLINK-3545,1 51855U 22022D   23352.46602895  .00000385  00000-0  42284-4 0  9997,2 51855  53.2202  65.2540 0001756  81.4968 278.6223 15.08856191100350,6917.831,95.437,540.911,538.481,0.0
51855.0,STARLINK-3545,PAYLOAD,2023-12-18 12:46:27,15.08855735,0.0001675,53.219,64.96,75.0959,285.0218,8.265e-05,1.028e-05,0.0,0 STARLINK-3545,1 51855U 22022D   23352.53226775  .00001028  00000-0  82650-4 0  9990,2 51855  53.2190  64.9600 0001675  75.0959 285.0218 15.08855735100368,6917.832,95.437,540.856,538.539,0.0
51855.0,STARLINK-3545,PAYLOAD,2023-12-19 11:01:52,15.08843599,0.0001528,53.2187,60.8025,86.7306,273.3861,-1.1787e-07,-2.9e-06,0.0,0 STARLINK-3545,1 51855U 22022D   23353.45963686 -.00000290  00000-0 -11787-6 0  9998,2 51855  53.2187  60.8025 0001528  86.7306 273.3861 15.08843599100507,6917.869,95.437,540.791,538.677,0.0
51855.0,STARLINK-3545,PAYLOAD,2023-12-20 10:52:40,15.08837204,0.0001502,53.218,56.3449,83.7009,276.4154,-9.6244e-05,-1.819e-05,0.0,0 STARLINK-3545,1 51855U 22022D   23354.45324567 -.00001819  00000-0 -96244-4 0  9995,2 51855  53.2180  56.3449 0001502  83.7009 276.4154 15.08837204100650,6917.889,95.438,540.793,538.715,0.0
51855.0,STARLINK-3545,PAYLOAD,2023-12-21 10:43:26,15.08847363,0.0001575,53.2191,51.8776,101.4605,258.6564,0.00011617,1.562e-05,0.0,0 STARLINK-3545,1 51855U 22022D   23355.44683355  .00001562  00000-0  11617-3 0  9991,2 51855  53.2191  51.8776 0001575 101.4605 258.6564 15.08847363100806,6917.858,95.437,540.812,538.633,0.0
51855.0,STARLINK-3545,PAYLOAD,2023-12-22 10:34:14,15.08840297,0.0001662,53.2195,47.4142,115.1044,245.0121,7.5034e-05,9.06e-06,0.0,0 STARLINK-3545,1 51855U 22022D   23356.44044170  .00000906  00000-0  75034-4 0  9993,2 51855  53.2195  47.4142 0001662 115.1044 245.0121 15.08840297100958,6917.879,95.438,540.894,538.595,0.0
51855.0,STARLINK-3545,PAYLOAD,2023-12-23 08:49:38,15.08842821,0.0001754,53.2194,43.2539,111.1235,248.9945,-5.3754e-05,-1.144e-05,0.0,0 STARLINK-3545,1 51855U 22022D   23357.36780679 -.00001144  00000-0 -53754-4 0  9998,2 51855  53.2194  43.2539 0001754 111.1235 248.9945 15.08842821101098,6917.872,95.437,540.95,538.523,0.0
51855.0,STARLINK-3545,PAYLOAD,2023-12-24 03:54:16,15.08776847,0.0002139,53.2199,39.6856,104.0127,256.1103,0.00087893,0.00013704,0.0,0 STARLINK-3545,1 51855U 22022D   23358.16269359  .00013704  00000-0  87893-3 0  9997,2 51855  53.2199  39.6856 0002139 104.0127 256.1103 15.08776847101218,6918.073,95.442,541.418,538.459,0.0
51855.0,STARLINK-3545,PAYLOAD,2023-12-24 11:51:11,15.08849209,0.0001622,53.2193,38.1984,100.9502,259.1672,0.00014715,2.055e-05,0.0,0 STARLINK-3545,1 51855U 22022D   23358.49387977  .00002055  00000-0  14715-3 0  9990,2 51855  53.2193  38.1984 0001622 100.9502 259.1672 15.08849209101268,6917.852,95.437,540.839,538.595,0.0
51855.0,STARLINK-3545,PAYLOAD,2023-12-24 13:26:34,15.08845889,0.0001645,53.2192,37.8957,98.4923,261.6256,0.00022102,3.232e-05,0.0,0 STARLINK-3545,1 51855U 22022D   23358.56011992  .00003232  00000-0  22102-3 0  9996,2 51855  53.2192  37.8957 0001645  98.4923 261.6256 15.08845889101273,6917.862,95.437,540.865,538.589,0.0
51855.0,STARLINK-3545,PAYLOAD,2023-12-25 11:41:58,15.08843553,0.0001803,53.2199,33.7298,100.0838,260.0358,0.00012453,1.695e-05,0.0,0 STARLINK-3545,1 51855U 22022D   23359.48748424  .00001695  00000-0  12453-3 0  9994,2 51855  53.2199  33.7298 0001803 100.0838 260.0358 15.08843553101412,6917.87,95.437,540.982,538.487,0.0
51855.0,STARLINK-3545,PAYLOAD,2023-12-26 09:57:23,15.08842729,0.0002029,53.2194,29.57,69.2643,290.8567,1.3419e-05,-7.5e-07,0.0,0 STARLINK-3545,1 51855U 22022D   23360.41485123 -.00000075  00000-0  13419-4 0  9999,2 51855  53.2194  29.5700 0002029  69.2643 290.8567 15.08842729101551,6917.872,95.437,541.141,538.333,0.0
